METHANESAT              
1 59101U 24043D   25148.30887789  .00002657  00000+0  24652-3 0  9990
2 59101  97.7989 274.4781 0010174 207.1602 152.9088 14.95263027 67084
